{
    "links": {
        "self": "http://www.neowsapp.com/rest/v1/neo/3666676?api_key=iIulBulltgU6a56xZRHN4H3l9WmuAYTsLGpBGhQ2"
    },
    "id": "3666676",
    "neo_reference_id": "3666676",
    "name": "(2014 FS37)",
    "designation": "2014 FS37",
    "nasa_jpl_url": "http://ssd.jpl.nasa.gov/sbdb.cgi?sstr=3666676",
    "absolute_magnitude_h": 24.4,
    "estimated_diameter": {
        "kilometers": {
            "estimated_diameter_min": 0.0350392641,
            "estimated_diameter_max": 0.0783501764
        },
        "meters": {
            "estimated_diameter_min": 35.0392641108,
            "estimated_diameter_max": 78.3501764334
        },
        "miles": {
            "estimated_diameter_min": 0.0217723826,
            "estimated_diameter_max": 0.0486845275
        },
        "feet": {
            "estimated_diameter_min": 114.9582192654,
            "estimated_diameter_max": 257.0543928497
        }
    },
    "is_potentially_hazardous_asteroid": false,
    "close_approach_data": [
        {
            "close_approach_date": "2014-03-25",
            "close_approach_date_full": "2014-Mar-25 15:05",
            "epoch_date_close_approach": 1395759900000,
            "relative_velocity": {
                "kilometers_per_second": "5.9501487079",
                "kilometers_per_hour": "21420.5353484691",
                "miles_per_hour": "13309.8876447196"
            },
            "miss_distance": {
                "astronomical": "0.0941609936",
                "lunar": "36.6286265104",
                "kilometers": "14086284.079643632",
                "miles": "8752811.0538488416"
            },
            "orbiting_body": "Earth"
        }
    ],
    "orbital_data": {
        "orbit_id": "16",
        "orbit_determination_date": "2017-04-06 08:41:53",
        "first_observation_date": "2014-03-27",
        "last_observation_date": "2014-04-28",
        "data_arc_in_days": 32,
        "observations_used": 45,
        "orbit_uncertainty": "7",
        "minimum_orbit_intersection": ".0797305",
        "jupiter_tisserand_invariant": "3.872",
        "epoch_osculation": "2459000.5",
        "eccentricity": ".4215750177180286",
        "semi_major_axis": "1.863864818065139",
        "inclination": "5.76525458709113",
        "ascending_node_longitude": "184.0278955439745",
        "orbital_period": "929.4371833371042",
        "perihelion_distance": "1.078105974365318",
        "perihelion_argument": "6.83927762658828",
        "aphelion_distance": "2.64962366176496",
        "perihelion_time": "2458604.858270347636",
        "mean_anomaly": "153.2443775957601",
        "mean_motion": ".3873311789694441",
        "equinox": "J2000",
        "orbit_class": {
            "orbit_class_type": "AMO",
            "orbit_class_description": "Near-Earth asteroid orbits similar to that of 1221 Amor",
            "orbit_class_range": "1.017 AU < q (perihelion) < 1.3 AU"
        }
    },
    "is_sentry_object": false
}